STARLINK-1152           
1 45096U 20006BE  26068.59806897  .00079483  00000+0  20481-2 0  9993
2 45096  53.0397 206.9193 0003727 207.5385 152.5421 15.38522546337578
KUIPER-00248            
1 67153U 25301W   26068.25007030  .00048086  00000+0  12900-2 0  9991
2 67153  51.8685  67.7485 0011196  42.2591 317.9256 15.37429186 13839
